{
  "norad_id": 62838,
  "name": "STARLINK-11556 [DTC]",
  "history": [
    {
      "epoch": "2026-03-28T15:23:39.198624Z",
      "apogee_km": 357.8144669549374,
      "perigee_km": 354.836891625916,
      "latitude_deg": -8.019518417779061e-06,
      "longitude_deg": 134.56800979739768,
      "height_km": 355.8762286668598,
      "semi_major_axis_km": 6734.462679290426,
      "eccentricity": 0.00022107,
      "inclination_deg": 43.0016,
      "raan_deg": 191.5403,
      "arg_perigee_deg": 278.6036,
      "mean_anomaly_deg": 81.4581,
      "mean_motion_rev_day": 15.70899264
    },
    {
      "epoch": "2026-03-29T23:26:25.766304Z",
      "apogee_km": 357.42757201485074,
      "perigee_km": 354.5184364930137,
      "latitude_deg": 1.2746667629436748e-05,
      "longitude_deg": 4.510506802466022,
      "height_km": 355.1117432018473,
      "semi_major_axis_km": 6734.110004253932,
      "eccentricity": 0.000216,
      "inclination_deg": 43.0013,
      "raan_deg": 183.4929,
      "arg_perigee_deg": 295.8564,
      "mean_anomaly_deg": 64.2081,
      "mean_motion_rev_day": 15.71022671
    },
    {
      "epoch": "2026-03-30T05:32:39.533568Z",
      "apogee_km": 356.9439930797407,
      "perigee_km": 355.5265424048266,
      "latitude_deg": -4.168261525519526e-05,
      "longitude_deg": -88.83068971253277,
      "height_km": 355.8922337976627,
      "semi_major_axis_km": 6734.372267742284,
      "eccentricity": 0.00010524,
      "inclination_deg": 43.0001,
      "raan_deg": 181.9598,
      "arg_perigee_deg": 279.3543,
      "mean_anomaly_deg": 80.7205,
      "mean_motion_rev_day": 15.70930899
    },
    {
      "epoch": "2026-03-30T13:10:27.388704Z",
      "apogee_km": 357.34707471758975,
      "perigee_km": 355.33050328733134,
      "latitude_deg": 3.952823185603879e-06,
      "longitude_deg": 154.4900116045643,
      "height_km": 355.7001194279515,
      "semi_major_axis_km": 6734.47578900246,
      "eccentricity": 0.00014972,
      "inclination_deg": 43.0029,
      "raan_deg": 180.0432,
      "arg_perigee_deg": 294.085,
      "mean_anomaly_deg": 65.9861,
      "mean_motion_rev_day": 15.70894677
    },
    {
      "epoch": "2026-03-30T22:19:49.255680Z",
      "apogee_km": 357.58286725428025,
      "perigee_km": 354.86945764886605,
      "latitude_deg": 1.3207920248203206e-05,
      "longitude_deg": 14.47278291133474,
      "height_km": 354.9455939698009,
      "semi_major_axis_km": 6734.363162451573,
      "eccentricity": 0.00020146,
      "inclination_deg": 42.9989,
      "raan_deg": 177.7431,
      "arg_perigee_deg": 320.904,
      "mean_anomaly_deg": 39.1682,
      "mean_motion_rev_day": 15.70934085
    },
    {
      "epoch": "2026-03-31T13:35:24.861408Z",
      "apogee_km": 357.6991818840106,
      "perigee_km": 355.17371684049976,
      "latitude_deg": 1.0265724104578765e-05,
      "longitude_deg": 141.1160220155075,
      "height_km": 356.24763203599736,
      "semi_major_axis_km": 6734.573449362255,
      "eccentricity": 0.0001875,
      "inclination_deg": 43.0004,
      "raan_deg": 173.9114,
      "arg_perigee_deg": 268.261,
      "mean_anomaly_deg": 91.8043,
      "mean_motion_rev_day": 15.70860507
    },
    {
      "epoch": "2026-04-01T06:22:34.281984Z",
      "apogee_km": 357.6379572639189,
      "perigee_km": 354.339582461841,
      "latitude_deg": 3.296420658829539e-05,
      "longitude_deg": -115.57807972063746,
      "height_km": 356.3640901025931,
      "semi_major_axis_km": 6734.12576986288,
      "eccentricity": 0.0002449,
      "inclination_deg": 43.0,
      "raan_deg": 169.6959,
      "arg_perigee_deg": 248.5794,
      "mean_anomaly_deg": 111.4813,
      "mean_motion_rev_day": 15.71017154
    },
    {
      "epoch": "2026-04-02T12:53:45.314592Z",
      "apogee_km": 357.28613448447686,
      "perigee_km": 355.19039690179306,
      "latitude_deg": -2.8407703913154637e-06,
      "longitude_deg": 137.70701335349898,
      "height_km": 356.1547181972406,
      "semi_major_axis_km": 6734.375265693135,
      "eccentricity": 0.0001556,
      "inclination_deg": 43.0004,
      "raan_deg": 162.0304,
      "arg_perigee_deg": 262.1083,
      "mean_anomaly_deg": 97.9608,
      "mean_motion_rev_day": 15.7092985
    },
    {
      "epoch": "2026-04-04T13:43:39.548064Z",
      "apogee_km": 357.73575165613784,
      "perigee_km": 354.62719024994567,
      "latitude_deg": 5.91337051047293e-06,
      "longitude_deg": 110.96260163981182,
      "height_km": 356.37135951740595,
      "semi_major_axis_km": 6734.3184709530415,
      "eccentricity": 0.0002308,
      "inclination_deg": 42.9992,
      "raan_deg": 149.7674,
      "arg_perigee_deg": 254.4387,
      "mean_anomaly_deg": 105.6226,
      "mean_motion_rev_day": 15.70949723
    },
    {
      "epoch": "2026-04-05T03:27:44.106336Z",
      "apogee_km": 357.6084593329879,
      "perigee_km": 355.0398011686875,
      "latitude_deg": 4.193043365460381e-05,
      "longitude_deg": -99.07021337631924,
      "height_km": 356.73798072984226,
      "semi_major_axis_km": 6734.461130250837,
      "eccentricity": 0.00019071,
      "inclination_deg": 42.9988,
      "raan_deg": 146.3176,
      "arg_perigee_deg": 240.0374,
      "mean_anomaly_deg": 120.0305,
      "mean_motion_rev_day": 15.70899806
    }
  ]
}